{
  "type": "FeatureCollection",
  "features": [
    {
      "type": "Feature",
      "properties": {
        "norad_id": 51444,
        "name": "CSG-2",
        "group": "resource",
        "lat": 31.13707422737716,
        "lon": -3.036995875479823,
        "alt_km": 620.3562429374033,
        "timestamp": "2025-12-16T21:38:56.827584+00:00",
        "meta_object_name": "CSG-2",
        "meta_object_id": "2022-008A",
        "meta_epoch": "2025-12-16T14:30:02.525760",
        "meta_mean_motion": 14.82147873,
        "meta_eccentricity": 0.000145,
        "meta_inclination": 97.8811,
        "meta_ra_of_asc_node": 171.8695,
        "meta_arg_of_pericenter": 89.7047,
        "meta_mean_anomaly": 270.4333,
        "meta_ephemeris_type": 0,
        "meta_classification_type": "U",
        "meta_norad_cat_id": 51444,
        "meta_element_set_no": 999,
        "meta_rev_at_epoch": 20954,
        "meta_bstar": 6.0704e-05,
        "meta_mean_motion_dot": 4.31e-06,
        "meta_mean_motion_ddot": 0,
        "tle_line1": "1 51444U 22008A   25350.60419590  .00000431  00000+0  60704-4 0  9997",
        "tle_line2": "2 51444  97.8811 171.8695 0001450  89.7047 270.4333 14.82147873209543"
      },
      "geometry": {
        "type": "Point",
        "coordinates": [
          -3.036995875479823,
          31.13707422737716
        ]
      }
    },
    {
      "type": "Feature",
      "properties": {
        "norad_id": 52912,
        "name": "GAOFEN-12 03",
        "group": "resource",
        "lat": 26.53319186977314,
        "lon": -125.79469315603804,
        "alt_km": 628.2594255075837,
        "timestamp": "2025-12-16T21:38:56.827594+00:00",
        "meta_object_name": "GAOFEN-12 03",
        "meta_object_id": "2022-069A",
        "meta_epoch": "2025-12-16T06:55:16.088160",
        "meta_mean_motion": 14.79618148,
        "meta_eccentricity": 0.00021248,
        "meta_inclination": 97.8484,
        "meta_ra_of_asc_node": 237.5552,
        "meta_arg_of_pericenter": 56.3288,
        "meta_mean_anomaly": 303.8126,
        "meta_ephemeris_type": 0,
        "meta_classification_type": "U",
        "meta_norad_cat_id": 52912,
        "meta_element_set_no": 999,
        "meta_rev_at_epoch": 18756,
        "meta_bstar": 0.00011228451,
        "meta_mean_motion_dot": 7.91e-06,
        "meta_mean_motion_ddot": 0,
        "tle_line1": "1 52912U 22069A   25350.28838065  .00000791  00000+0  11228-3 0  9996",
        "tle_line2": "2 52912  97.8484 237.5552 0002124  56.3288 303.8126 14.79618148187560"
      },
      "geometry": {
        "type": "Point",
        "coordinates": [
          -125.79469315603804,
          26.53319186977314
        ]
      }
    },
    {
      "type": "Feature",
      "properties": {
        "norad_id": 54754,
        "name": "SWOT",
        "group": "resource",
        "lat": -71.00389365332873,
        "lon": 141.05157361582047,
        "alt_km": 900.5682560111982,
        "timestamp": "2025-12-16T21:38:56.827604+00:00",
        "meta_object_name": "SWOT",
        "meta_object_id": "2022-173A",
        "meta_epoch": "2025-12-16T08:25:42.374496",
        "meta_mean_motion": 14.00167442,
        "meta_eccentricity": 3.572e-05,
        "meta_inclination": 77.6107,
        "meta_ra_of_asc_node": 282.1146,
        "meta_arg_of_pericenter": 103.1345,
        "meta_mean_anomaly": 256.9846,
        "meta_ephemeris_type": 0,
        "meta_classification_type": "U",
        "meta_norad_cat_id": 54754,
        "meta_element_set_no": 999,
        "meta_rev_at_epoch": 15356,
        "meta_bstar": 6.5695106e-05,
        "meta_mean_motion_dot": 9.4e-07,
        "meta_mean_motion_ddot": 0,
        "tle_line1": "1 54754U 22173A   25350.35118489  .00000094  00000+0  65695-4 0  9991",
        "tle_line2": "2 54754  77.6107 282.1146 0000357 103.1345 256.9846 14.00167442153560"
      },
      "geometry": {
        "type": "Point",
        "coordinates": [
          141.05157361582047,
          -71.00389365332873
        ]
      }
    },
    {
      "type": "Feature",
      "properties": {
        "norad_id": 57654,
        "name": "GAOFEN-12 04",
        "group": "resource",
        "lat": -17.867789243488332,
        "lon": 84.02625090713641,
        "alt_km": 635.7685887824155,
        "timestamp": "2025-12-16T21:38:56.827615+00:00",
        "meta_object_name": "GAOFEN-12 04",
        "meta_object_id": "2023-123A",
        "meta_epoch": "2025-12-16T07:46:26.760576",
        "meta_mean_motion": 14.79710775,
        "meta_eccentricity": 0.00012736,
        "meta_inclination": 97.9123,
        "meta_ra_of_asc_node": 266.0266,
        "meta_arg_of_pericenter": 74.5538,
        "meta_mean_anomaly": 285.5815,
        "meta_ephemeris_type": 0,
        "meta_classification_type": "U",
        "meta_norad_cat_id": 57654,
        "meta_element_set_no": 999,
        "meta_rev_at_epoch": 12558,
        "meta_bstar": 0.00017870877,
        "meta_mean_motion_dot": 1.291e-05,
        "meta_mean_motion_ddot": 0,
        "tle_line1": "1 57654U 23123A   25350.32392084  .00001291  00000+0  17871-3 0  9993",
        "tle_line2": "2 57654  97.9123 266.0266 0001273  74.5538 285.5815 14.79710775125586"
      },
      "geometry": {
        "type": "Point",
        "coordinates": [
          84.02625090713641,
          -17.867789243488332
        ]
      }
    },
    {
      "type": "Feature",
      "properties": {
        "norad_id": 59065,
        "name": "PARS 1",
        "group": "resource",
        "lat": 70.41131043082075,
        "lon": -59.691865176033346,
        "alt_km": 427.9313996108731,
        "timestamp": "2025-12-16T21:38:56.827625+00:00",
        "meta_object_name": "PARS 1",
        "meta_object_id": "2024-039Q",
        "meta_epoch": "2025-12-16T08:52:19.791264",
        "meta_mean_motion": 15.41058024,
        "meta_eccentricity": 0.00123551,
        "meta_inclination": 97.4631,
        "meta_ra_of_asc_node": 321.3798,
        "meta_arg_of_pericenter": 61.3658,
        "meta_mean_anomaly": 298.883,
        "meta_ephemeris_type": 0,
        "meta_classification_type": "U",
        "meta_norad_cat_id": 59065,
        "meta_element_set_no": 999,
        "meta_rev_at_epoch": 10044,
        "meta_bstar": 0.00022854658,
        "meta_mean_motion_dot": 9.379e-05,
        "meta_mean_motion_ddot": 0,
        "tle_line1": "1 59065U 24039Q   25350.36967351  .00009379  00000+0  22855-3 0  9990",
        "tle_line2": "2 59065  97.4631 321.3798 0012355  61.3658 298.8830 15.41058024100442"
      },
      "geometry": {
        "type": "Point",
        "coordinates": [
          -59.691865176033346,
          70.41131043082075
        ]
      }
    },
    {
      "type": "Feature",
      "properties": {
        "norad_id": 59371,
        "name": "RESURS-P 4",
        "group": "resource",
        "lat": 77.93910516411754,
        "lon": -99.44994140008352,
        "alt_km": 461.45665585016013,
        "timestamp": "2025-12-16T21:38:56.827635+00:00",
        "meta_object_name": "RESURS-P 4",
        "meta_object_id": "2024-061A",
        "meta_epoch": "2025-12-16T08:45:36.112320",
        "meta_mean_motion": 15.32115086,
        "meta_eccentricity": 0.0001243,
        "meta_inclination": 97.2544,
        "meta_ra_of_asc_node": 296.6206,
        "meta_arg_of_pericenter": 55.3283,
        "meta_mean_anomaly": 304.8077,
        "meta_ephemeris_type": 0,
        "meta_classification_type": "U",
        "meta_norad_cat_id": 59371,
        "meta_element_set_no": 999,
        "meta_rev_at_epoch": 9576,
        "meta_bstar": 0.0001098189,
        "meta_mean_motion_dot": 3.329e-05,
        "meta_mean_motion_ddot": 0,
        "tle_line1": "1 59371U 24061A   25350.36500130  .00003329  00000+0  10982-3 0  9990",
        "tle_line2": "2 59371  97.2544 296.6206 0001243  55.3283 304.8077 15.32115086 95763"
      },
      "geometry": {
        "type": "Point",
        "coordinates": [
          -99.44994140008352,
          77.93910516411754
        ]
      }
    },
    {
      "type": "Feature",
      "properties": {
        "norad_id": 59625,
        "name": "LEGION 1",
        "group": "resource",
        "lat": 70.5970140025913,
        "lon": 43.47274095060575,
        "alt_km": 511.30517948582565,
        "timestamp": "2025-12-16T21:38:56.827646+00:00",
        "meta_object_name": "LEGION 1",
        "meta_object_id": "2024-081A",
        "meta_epoch": "2025-12-16T07:04:49.061856",
        "meta_mean_motion": 15.1651651,
        "meta_eccentricity": 0.00037795,
        "meta_inclination": 97.5215,
        "meta_ra_of_asc_node": 64.9032,
        "meta_arg_of_pericenter": 301.9138,
        "meta_mean_anomaly": 58.1727,
        "meta_ephemeris_type": 0,
        "meta_classification_type": "U",
        "meta_norad_cat_id": 59625,
        "meta_element_set_no": 999,
        "meta_rev_at_epoch": 8981,
        "meta_bstar": 0.00021450783,
        "meta_mean_motion_dot": 4.114e-05,
        "meta_mean_motion_ddot": 0,
        "tle_line1": "1 59625U 24081A   25350.29501229  .00004114  00000+0  21451-3 0  9992",
        "tle_line2": "2 59625  97.5215  64.9032 0003779 301.9138  58.1727 15.16516510 89810"
      },
      "geometry": {
        "type": "Point",
        "coordinates": [
          43.47274095060575,
          70.5970140025913
        ]
      }
    }
  ]
}